[{"OBJECT_NAME":"DONGPO 08","OBJECT_ID":"2022-167E","EPOCH":"2026-03-09T22:57:52.742880","MEAN_MOTION":15.31542505,"ECCENTRICITY":0.00092155,"INCLINATION":97.6764,"RA_OF_ASC_NODE":233.3854,"ARG_OF_PERICENTER":153.9158,"MEAN_ANOMALY":206.2548,"EPHEMERIS_TYPE":0,"CLASSIFICATION_TYPE":"U","NORAD_CAT_ID":54686,"ELEMENT_SET_NO":999,"REV_AT_EPOCH":18012,"BSTAR":0.0004734784,"MEAN_MOTION_DOT":0.0001437,"MEAN_MOTION_DDOT":0},{"OBJECT_NAME":"STARLINK-35888","OBJECT_ID":"2025-303AD","EPOCH":"2026-03-09T01:01:27.560640","MEAN_MOTION":15.27564498,"ECCENTRICITY":7.004e-5,"INCLINATION":42.994,"RA_OF_ASC_NODE":314.5842,"ARG_OF_PERICENTER":284.7454,"MEAN_ANOMALY":75.332,"EPHEMERIS_TYPE":0,"CLASSIFICATION_TYPE":"U","NORAD_CAT_ID":67190,"ELEMENT_SET_NO":999,"REV_AT_EPOCH":1263,"BSTAR":0.0012225527,"MEAN_MOTION_DOT":0.00033517,"MEAN_MOTION_DDOT":0}]
